NORAD_CAT_ID,OBJECT_NAME,OBJECT_TYPE,EPOCH,MEAN_MOTION,ECCENTRICITY,INCLINATION,RA_OF_ASC_NODE,ARG_OF_PERICENTER,MEAN_ANOMALY,BSTAR,MEAN_MOTION_DOT,MEAN_MOTION_DDOT,TLE_LINE0,TLE_LINE1,TLE_LINE2,SEMIMAJOR_AXIS,PERIOD,APOGEE,PERIGEE,DECAYED
52642.0,STARLINK-3971,PAYLOAD,2023-06-08 22:37:51,15.08845389,0.0001242,53.2161,89.6025,79.1482,280.965,5.8772e-05,6.48e-06,0.0,0 STARLINK-3971,1 52642U 22052AW  23159.94295591  .00000648  00000-0  58772-4 0  9995,2 52642  53.2161  89.6025 0001242  79.1482 280.9650 15.08845389 59824,6917.864,95.437,540.588,538.87,0.0
52642.0,STARLINK-3971,PAYLOAD,2023-06-09 01:48:37,15.08849455,0.0001267,53.2163,89.0081,80.0433,280.0702,9.2346e-05,1.182e-05,0.0,0 STARLINK-3971,1 52642U 22052AW  23160.07543203  .00001182  00000-0  92346-4 0  9996,2 52642  53.2163  89.0081 0001267  80.0433 280.0702 15.08849455 59463,6917.851,95.437,540.593,538.84,0.0
52642.0,STARLINK-3971,PAYLOAD,2023-06-10 01:39:25,15.08835657,0.0001012,53.2161,84.5472,83.4833,276.6274,6.6329e-05,7.68e-06,0.0,0 STARLINK-3971,1 52642U 22052AW  23161.06904109  .00000768  00000-0  66329-4 0  9993,2 52642  53.2161  84.5472 0001012  83.4833 276.6274 15.08835657 59996,6917.894,95.438,540.459,539.059,0.0
52642.0,STARLINK-3971,PAYLOAD,2023-06-10 19:08:39,15.08841866,0.0001129,53.2165,81.2776,97.6765,262.4356,-9.4968e-05,-1.799e-05,0.0,0 STARLINK-3971,1 52642U 22052AW  23161.79768461 -.00001799  00000-0 -94968-4 0  9999,2 52642  53.2165  81.2776 0001129  97.6765 262.4356 15.08841866 59725,6917.875,95.437,540.521,538.959,0.0
52642.0,STARLINK-3971,PAYLOAD,2023-06-11 11:02:31,15.0884185,0.000154,53.217,78.3023,56.5673,303.5466,-3.4483e-06,-3.43e-06,0.0,0 STARLINK-3971,1 52642U 22052AW  23162.46008214 -.00000343  00000-0 -34483-5 0  9998,2 52642  53.2170  78.3023 0001540  56.5673 303.5466 15.08841850 59825,6917.875,95.437,540.805,538.674,0.0
52642.0,STARLINK-3971,PAYLOAD,2023-06-11 17:24:03,15.08835552,0.0001116,53.2168,77.1168,109.1091,251.0022,-7.9019e-06,-4.14e-06,0.0,0 STARLINK-3971,1 52642U 22052AW  23162.72504623 -.00000414  00000-0 -79019-5 0  9995,2 52642  53.2168  77.1168 0001116 109.1091 251.0022 15.08835552 60242,6917.894,95.438,540.531,538.987,0.0
52642.0,STARLINK-3971,PAYLOAD,2023-06-11 20:34:50,15.08833827,0.0001065,53.217,76.5193,100.5958,259.5154,-2.0936e-05,-6.21e-06,0.0,0 STARLINK-3971,1 52642U 22052AW  23162.85752794 -.00000621  00000-0 -20936-4 0  9996,2 52642  53.2170  76.5193 0001065 100.5958 259.5154 15.08833827 59886,6917.899,95.438,540.501,539.028,0.0
52642.0,STARLINK-3971,PAYLOAD,2023-06-12 10:53:18,15.0883892,0.0001063,53.217,73.8438,101.0326,259.0786,1.1963e-05,-9.7e-07,0.0,0 STARLINK-3971,1 52642U 22052AW  23163.45368387 -.00000097  00000-0  11963-4 0  9990,2 52642  53.2170  73.8438 0001063 101.0326 259.0786 15.08838920 59976,6917.884,95.438,540.484,539.013,0.0
52642.0,STARLINK-3971,PAYLOAD,2023-06-12 20:25:38,15.08828363,0.0001046,53.217,72.0595,104.757,255.3538,-2.5802e-05,-6.98e-06,0.0,0 STARLINK-3971,1 52642U 22052AW  23163.85113428 -.00000698  00000-0 -25802-4 0  9993,2 52642  53.2170  72.0595 0001046 104.7570 255.3538 15.08828363 60036,6917.916,95.438,540.505,539.057,0.0
52642.0,STARLINK-3971,PAYLOAD,2023-06-13 04:22:33,15.08836846,0.0001063,53.2169,70.5723,105.4655,254.6454,6.6202e-05,7.66e-06,0.0,0 STARLINK-3971,1 52642U 22052AW  23164.18232725  .00000766  00000-0  66202-4 0  9995,2 52642  53.2169  70.5723 0001063 105.4655 254.6454 15.08836846 60462,6917.89,95.438,540.49,539.02,0.0
52642.0,STARLINK-3971,PAYLOAD,2023-06-14 04:13:19,15.08843771,0.0001179,53.2172,66.111,86.2327,273.88,7.9044e-05,9.7e-06,0.0,0 STARLINK-3971,1 52642U 22052AW  23165.17592392  .00000970  00000-0  79044-4 0  9999,2 52642  53.2172  66.1110 0001179  86.2327 273.8800 15.08843771 60235,6917.869,95.437,540.549,538.918,0.0
52642.0,STARLINK-3971,PAYLOAD,2023-06-14 23:17:58,15.08833314,0.0001634,53.2184,62.5405,77.6612,282.4563,7.2632e-05,8.68e-06,0.0,0 STARLINK-3971,1 52642U 22052AW  23165.97081356  .00000868  00000-0  72632-4 0  9992,2 52642  53.2184  62.5405 0001634  77.6612 282.4563 15.08833314 60731,6917.901,95.438,540.896,538.635,0.0
52642.0,STARLINK-3971,PAYLOAD,2023-06-15 23:08:44,15.08852144,0.0001143,53.2176,58.0804,92.0728,268.0395,4.1869e-05,3.79e-06,0.0,0 STARLINK-3971,1 52642U 22052AW  23166.96440134  .00000379  00000-0  41869-4 0  9990,2 52642  53.2176  58.0804 0001143  92.0728 268.0395 15.08852144 60880,6917.843,95.437,540.499,538.918,0.0
52642.0,STARLINK-3971,PAYLOAD,2023-06-16 16:37:58,15.08844253,0.0001276,53.2173,54.8108,89.1768,270.937,0.00013392,1.844e-05,0.0,0 STARLINK-3971,1 52642U 22052AW  23167.69304043  .00001844  00000-0  13392-3 0  9996,2 52642  53.2173  54.8108 0001276  89.1768 270.9370 15.08844253 60614,6917.867,95.437,540.615,538.85,0.0
52642.0,STARLINK-3971,PAYLOAD,2023-06-17 02:10:16,15.08856084,0.0001083,53.217,53.0252,94.7757,265.3359,0.00011848,1.599e-05,0.0,0 STARLINK-3971,1 52642U 22052AW  23168.09047107  .00001599  00000-0  11848-3 0  9997,2 52642  53.2170  53.0252 0001083  94.7757 265.3359 15.08856084 61057,6917.831,95.437,540.445,538.947,0.0
52642.0,STARLINK-3971,PAYLOAD,2023-06-17 16:28:47,15.08828134,0.0001432,53.217,50.3522,79.7699,280.3455,-0.00015984,-2.83e-05,0.0,0 STARLINK-3971,1 52642U 22052AW  23168.68666078 -.00002830  00000-0 -15984-3 0  9992,2 52642  53.2170  50.3522 0001432  79.7699 280.3455 15.08828134 61142,6917.917,95.438,540.772,538.791,0.0
52642.0,STARLINK-3971,PAYLOAD,2023-06-17 22:50:20,15.0882205,0.0001047,53.2172,49.1628,74.5984,285.5123,-0.00019698,-3.42e-05,0.0,0 STARLINK-3971,1 52642U 22052AW  23168.95162734 -.00003420  00000-0 -19698-3 0  9994,2 52642  53.2172  49.1628 0001047  74.5984 285.5123 15.08822050 61183,6917.935,95.439,540.525,539.076,0.0
52642.0,STARLINK-3971,PAYLOAD,2023-06-18 19:30:20,15.08837815,0.0001138,53.218,45.2942,80.4501,279.662,-5.8533e-05,-1.219e-05,0.0,0 STARLINK-3971,1 52642U 22052AW  23169.81273832 -.00001219  00000-0 -58533-4 0  9998,2 52642  53.2180  45.2942 0001138  80.4501 279.6620 15.08837815 60933,6917.887,95.438,540.539,538.965,0.0
52642.0,STARLINK-3971,PAYLOAD,2023-06-19 00:16:29,15.08843621,0.000112,53.2176,44.4031,79.7805,280.3313,1.4337e-05,-6e-07,0.0,0 STARLINK-3971,1 52642U 22052AW  23170.01145290 -.00000060  00000-0  14337-4 0  9994,2 52642  53.2176  44.4031 0001120  79.7805 280.3313 15.08843621 61343,6917.869,95.437,540.509,538.96,0.0
52642.0,STARLINK-3971,PAYLOAD,2023-06-19 08:13:25,15.08847314,0.00011,53.2176,42.9163,77.3272,282.7843,2.2649e-05,7.3e-07,0.0,0 STARLINK-3971,1 52642U 22052AW  23170.34265063  .00000073  00000-0  22649-4 0  9999,2 52642  53.2176  42.9163 0001100  77.3272 282.7843 15.08847314 61013,6917.858,95.437,540.484,538.962,0.0
52642.0,STARLINK-3971,PAYLOAD,2023-06-19 14:34:58,15.08834712,0.0001146,53.2175,41.7269,69.7946,290.3169,0.00027122,4.031e-05,0.0,0 STARLINK-3971,1 52642U 22052AW  23170.60761588  .00004031  00000-0  27122-3 0  9999,2 52642  53.2175  41.7269 0001146  69.7946 290.3169 15.08834712 61439,6917.897,95.438,540.554,538.969,0.0
52642.0,STARLINK-3971,PAYLOAD,2023-06-20 01:42:39,15.0885304,0.0001196,53.2166,39.6457,70.4575,289.6547,0.00046793,7.17e-05,0.0,0 STARLINK-3971,1 52642U 22052AW  23171.07129122  .00007170  00000-0  46793-3 0  9995,2 52642  53.2166  39.6457 0001196  70.4575 289.6547 15.08853040 61500,6917.841,95.437,540.533,538.878,0.0
52642.0,STARLINK-3971,PAYLOAD,2023-06-20 08:04:12,15.08840113,0.0001458,53.2167,38.4543,76.9919,283.1236,0.00017861,2.556e-05,0.0,0 STARLINK-3971,1 52642U 22052AW  23171.33625815  .00002556  00000-0  17861-3 0  9991,2 52642  53.2167  38.4543 0001458  76.9919 283.1236 15.08840113 61543,6917.88,95.438,540.754,538.736,0.0
52642.0,STARLINK-3971,PAYLOAD,2023-06-20 20:47:17,15.08843525,0.0001198,53.2166,36.0774,82.6578,277.455,-3.6397e-05,-8.67e-06,0.0,0 STARLINK-3971,1 52642U 22052AW  23171.86617411 -.00000867  00000-0 -36397-4 0  9993,2 52642  53.2166  36.0774 0001198  82.6578 277.4550 15.08843525 61240,6917.87,95.437,540.563,538.906,0.0
52642.0,STARLINK-3971,PAYLOAD,2023-06-20 23:58:03,15.08847993,0.0001209,53.2169,35.4828,85.7238,274.3892,2.9652e-05,1.84e-06,0.0,0 STARLINK-3971,1 52642U 22052AW  23171.99865126  .00000184  00000-0  29652-4 0  9991,2 52642  53.2169  35.4828 0001209  85.7238 274.3892 15.08847993 61266,6917.856,95.437,540.557,538.885,0.0
52642.0,STARLINK-3971,PAYLOAD,2023-06-21 19:02:41,15.08838804,0.0001154,53.2164,31.9142,103.7864,256.3257,-0.00010982,-2.035e-05,0.0,0 STARLINK-3971,1 52642U 22052AW  23172.79353438 -.00002035  00000-0 -10982-3 0  9992,2 52642  53.2164  31.9142 0001154 103.7864 256.3257 15.08838804 61767,6917.884,95.438,540.547,538.951,0.0
52642.0,STARLINK-3971,PAYLOAD,2023-06-22 23:39:38,15.08843088,0.0001139,53.2172,26.559,103.8718,256.2401,0.00016008,2.261e-05,0.0,0 STARLINK-3971,1 52642U 22052AW  23173.98585661  .00002261  00000-0  16008-3 0  9993,2 52642  53.2172  26.5590 0001139 103.8718 256.2401 15.08843088 61945,6917.871,95.437,540.524,538.948,0.0
52642.0,STARLINK-3971,PAYLOAD,2023-06-24 07:27:20,15.08844865,0.0001144,53.2169,20.6107,106.3529,253.7589,0.00013035,1.788e-05,0.0,0 STARLINK-3971,1 52642U 22052AW  23175.31065504  .00001788  00000-0  13035-3 0  9991,2 52642  53.2169  20.6107 0001144 106.3529 253.7589 15.08844865 62140,6917.866,95.437,540.522,538.939,0.0
52642.0,STARLINK-3971,PAYLOAD,2023-06-25 16:50:26,15.08839524,0.0001358,53.2168,14.3684,102.8707,257.2437,3.7312e-05,3.06e-06,0.0,0 STARLINK-3971,1 52642U 22052AW  23176.70170029  .00000306  00000-0  37312-4 0  9994,2 52642  53.2168  14.3684 0001358 102.8707 257.2437 15.08839524 62355,6917.882,95.438,540.686,538.807,0.0
52642.0,STARLINK-3971,PAYLOAD,2023-06-25 23:11:59,15.08850734,0.0001194,53.2179,13.1778,80.4571,279.6556,0.00016719,2.375e-05,0.0,0 STARLINK-3971,1 52642U 22052AW  23176.96665535  .00002375  00000-0  16719-3 0  9998,2 52642  53.2179  13.1778 0001194  80.4571 279.6556 15.08850734 62396,6917.848,95.437,540.539,538.887,0.0
